{
  "type": "FeatureCollection",
  "features": [
    {
      "type": "Feature",
      "geometry": {
        "type": "LineString",
        "coordinates": [
          [
            18.9549291,
            50.2859437
          ],
          [
            18.9542869,
            50.2859467
          ],
          [
            18.9539486,
            50.2860399
          ],
          [
            18.9537083,
            50.2861211
          ],
          [
            18.9527543,
            50.2862086
          ],
          [
            18.9525555,
            50.2865903
          ],
          [
            18.9513465,
            50.2871783
          ],
          [
            18.9514848,
            50.2873019
          ],
          [
            18.9512441,
            50.2874854
          ],
          [
            18.9512538,
            50.2878593
          ],
          [
            18.9508939,
            50.2878935
          ],
          [
            18.9518501,
            50.2888523
          ],
          [
            18.9523477,
            50.2890964
          ],
          [
            18.9523667,
            50.2896588
          ],
          [
            18.9523183,
            50.2905268
          ],
          [
            18.9523979,
            50.2905883
          ],
          [
            18.9520321,
            50.2911388
          ],
          [
            18.95104,
            50.2923727
          ],
          [
            18.9507264,
            50.2926252
          ],
          [
            18.9512577,
            50.2929356
          ],
          [
            18.951419,
            50.2930638
          ],
          [
            18.9508405,
            50.2932863
          ],
          [
            18.9499672,
            50.2936728
          ],
          [
            18.9487646,
            50.2941422
          ],
          [
            18.9493161,
            50.2948281
          ],
          [
            18.9496944,
            50.2953033
          ],
          [
            18.9510193,
            50.2969688
          ],
          [
            18.9504575,
            50.2971549
          ],
          [
            18.9502579,
            50.2972198
          ],
          [
            18.9496594,
            50.2974093
          ],
          [
            18.9498337,
            50.2977378
          ],
          [
            18.9499969,
            50.2980471
          ],
          [
            18.9500769,
            50.2981987
          ],
          [
            18.9498342,
            50.2982758
          ],
          [
            18.9487612,
            50.2978114
          ],
          [
            18.9479269,
            50.2984432
          ],
          [
            18.9476893,
            50.2985977
          ],
          [
            18.947097,
            50.2991224
          ],
          [
            18.9468853,
            50.2993602
          ],
          [
            18.946572,
            50.2997216
          ],
          [
            18.9461078,
            50.3002816
          ],
          [
            18.9459839,
            50.3005113
          ],
          [
            18.9459092,
            50.3005881
          ],
          [
            18.9459122,
            50.3006839
          ],
          [
            18.9458005,
            50.3007285
          ],
          [
            18.9456362,
            50.3009706
          ],
          [
            18.9455084,
            50.3016271
          ],
          [
            18.9454157,
            50.3021286
          ],
          [
            18.9452768,
            50.3027927
          ],
          [
            18.9452125,
            50.3031139
          ],
          [
            18.9453644,
            50.3031291
          ],
          [
            18.9462052,
            50.3032175
          ],
          [
            18.9466147,
            50.3032615
          ],
          [
            18.9468112,
            50.303291
          ],
          [
            18.9477923,
            50.3033918
          ],
          [
            18.9480303,
            50.3034154
          ],
          [
            18.948371,
            50.30345
          ],
          [
            18.9485372,
            50.3034667
          ],
          [
            18.9484688,
            50.3036931
          ],
          [
            18.9484419,
            50.3037824
          ],
          [
            18.9483815,
            50.3039746
          ],
          [
            18.9482154,
            50.3045006
          ],
          [
            18.9479375,
            50.3053864
          ],
          [
            18.9490188,
            50.3055557
          ],
          [
            18.9487233,
            50.3063553
          ],
          [
            18.9499332,
            50.3065516
          ],
          [
            18.94947,
            50.307849
          ],
          [
            18.9499226,
            50.3079213
          ],
          [
            18.9496343,
            50.3087324
          ],
          [
            18.9499856,
            50.3087364
          ],
          [
            18.9502678,
            50.308739
          ],
          [
            18.9508455,
            50.3087384
          ],
          [
            18.9511839,
            50.3087289
          ],
          [
            18.9512533,
            50.3091558
          ],
          [
            18.9520022,
            50.3098556
          ],
          [
            18.9520325,
            50.3100458
          ],
          [
            18.9545467,
            50.3115347
          ],
          [
            18.9558638,
            50.313474
          ],
          [
            18.9562199,
            50.3144977
          ],
          [
            18.9563361,
            50.3148796
          ],
          [
            18.9565724,
            50.3151787
          ],
          [
            18.956518,
            50.3153601
          ],
          [
            18.9566056,
            50.3156539
          ],
          [
            18.9566763,
            50.3158269
          ],
          [
            18.9546293,
            50.3173554
          ],
          [
            18.9566763,
            50.3158269
          ],
          [
            18.9566056,
            50.3156539
          ],
          [
            18.956518,
            50.3153601
          ],
          [
            18.9565724,
            50.3151787
          ],
          [
            18.9601882,
            50.3139012
          ],
          [
            18.9608756,
            50.3141687
          ],
          [
            18.9609224,
            50.3141964
          ],
          [
            18.9632787,
            50.315332
          ],
          [
            18.9634549,
            50.3155344
          ],
          [
            18.9635096,
            50.3156314
          ],
          [
            18.9639181,
            50.3163345
          ],
          [
            18.9640121,
            50.3164994
          ],
          [
            18.965406,
            50.3209735
          ],
          [
            18.9655977,
            50.3210932
          ],
          [
            18.9662101,
            50.3214763
          ],
          [
            18.9676794,
            50.3225102
          ],
          [
            18.9678599,
            50.3227686
          ],
          [
            18.9682976,
            50.323507
          ],
          [
            18.9684001,
            50.3236637
          ],
          [
            18.9702151,
            50.3233345
          ],
          [
            18.9705883,
            50.3232669
          ],
          [
            18.9714956,
            50.3231096
          ],
          [
            18.9719849,
            50.323021
          ],
          [
            18.973002,
            50.3228323
          ],
          [
            18.9733818,
            50.3227623
          ],
          [
            18.9735404,
            50.3227331
          ],
          [
            18.9736664,
            50.3227145
          ],
          [
            18.9744137,
            50.3226001
          ],
          [
            18.9744566,
            50.322594
          ],
          [
            18.9744726,
            50.3225917
          ],
          [
            18.9747985,
            50.3225443
          ],
          [
            18.9749824,
            50.3225163
          ],
          [
            18.9751375,
            50.3224901
          ],
          [
            18.9757833,
            50.3223781
          ],
          [
            18.9759563,
            50.3223393
          ],
          [
            18.9781209,
            50.3216908
          ],
          [
            18.9782723,
            50.3216553
          ],
          [
            18.97989,
            50.3213232
          ],
          [
            18.9802115,
            50.3213007
          ],
          [
            18.9820137,
            50.32118
          ],
          [
            18.9820856,
            50.3211753
          ],
          [
            18.9842667,
            50.3210245
          ],
          [
            18.9842601,
            50.3209802
          ],
          [
            18.9902661,
            50.3198744
          ],
          [
            18.99678,
            50.3194421
          ],
          [
            18.9978461,
            50.3182521
          ],
          [
            18.9987718,
            50.3174979
          ],
          [
            18.9989918,
            50.3173541
          ],
          [
            18.9990513,
            50.3173527
          ],
          [
            19.0000163,
            50.3173218
          ],
          [
            19.0002199,
            50.3173155
          ],
          [
            19.0004456,
            50.3173098
          ],
          [
            19.0006404,
            50.3173034
          ],
          [
            19.0013109,
            50.317281
          ],
          [
            19.0021229,
            50.3172624
          ],
          [
            19.0027554,
            50.3172461
          ],
          [
            19.0034168,
            50.3172374
          ],
          [
            19.0037394,
            50.3144402
          ],
          [
            19.0037588,
            50.314256
          ],
          [
            19.0038705,
            50.313063
          ],
          [
            19.0038752,
            50.3130205
          ],
          [
            19.0039301,
            50.3124697
          ],
          [
            19.0039429,
            50.3123738
          ],
          [
            19.0038155,
            50.3122941
          ],
          [
            19.0039454,
            50.3121926
          ],
          [
            19.0039304,
            50.3120563
          ],
          [
            19.0039021,
            50.3117606
          ],
          [
            19.0038587,
            50.3112982
          ],
          [
            19.0038471,
            50.3111661
          ],
          [
            19.0038194,
            50.3108391
          ],
          [
            19.0038118,
            50.3106463
          ],
          [
            19.0037936,
            50.310115
          ],
          [
            19.0037782,
            50.3096973
          ],
          [
            19.0037588,
            50.3094615
          ],
          [
            19.0037344,
            50.3092257
          ],
          [
            19.0037039,
            50.3089599
          ],
          [
            19.0036884,
            50.3088251
          ],
          [
            19.0036454,
            50.3084512
          ],
          [
            19.0036318,
            50.3083223
          ],
          [
            19.0036012,
            50.3080864
          ],
          [
            19.0035819,
            50.3079196
          ],
          [
            19.0035752,
            50.3078625
          ],
          [
            19.0035628,
            50.3077552
          ],
          [
            19.0035475,
            50.3076229
          ],
          [
            19.0035894,
            50.3068811
          ],
          [
            19.0036125,
            50.306784
          ],
          [
            19.0036692,
            50.3065596
          ],
          [
            19.0036815,
            50.3064416
          ],
          [
            19.0039125,
            50.3055463
          ],
          [
            19.0045193,
            50.3051014
          ],
          [
            19.004808,
            50.3048478
          ],
          [
            19.0048216,
            50.3044935
          ],
          [
            19.004815,
            50.3043772
          ],
          [
            19.0047964,
            50.3040858
          ],
          [
            19.0045892,
            50.3037785
          ],
          [
            19.0044481,
            50.3036615
          ],
          [
            19.0042255,
            50.3034614
          ],
          [
            19.003229,
            50.3028114
          ],
          [
            19.0031937,
            50.3027599
          ],
          [
            19.0027452,
            50.3019375
          ],
          [
            19.0027173,
            50.3017688
          ],
          [
            19.0027187,
            50.3015981
          ],
          [
            19.0027576,
            50.3013345
          ],
          [
            19.0027817,
            50.3011714
          ],
          [
            19.0028301,
            50.3008438
          ],
          [
            19.0028763,
            50.3004377
          ],
          [
            19.0031409,
            50.299464
          ],
          [
            19.0031873,
            50.2993144
          ],
          [
            19.0036808,
            50.2981003
          ],
          [
            19.0040641,
            50.2969278
          ],
          [
            19.0042082,
            50.2964428
          ],
          [
            19.0042929,
            50.2961719
          ],
          [
            19.0044261,
            50.2956977
          ],
          [
            19.0044864,
            50.2954628
          ],
          [
            19.0045141,
            50.2953542
          ],
          [
            19.0045457,
            50.2952317
          ],
          [
            19.0045743,
            50.2951187
          ],
          [
            19.0046826,
            50.2946908
          ],
          [
            19.004885,
            50.2939488
          ],
          [
            19.0049678,
            50.293616
          ],
          [
            19.0052533,
            50.2924644
          ],
          [
            19.0053759,
            50.291963
          ],
          [
            19.0054758,
            50.291432
          ],
          [
            19.0055764,
            50.2910181
          ],
          [
            19.0056135,
            50.2908709
          ],
          [
            19.0057242,
            50.2903933
          ],
          [
            19.0057422,
            50.290341
          ],
          [
            19.0058781,
            50.2898352
          ],
          [
            19.0063743,
            50.2878733
          ],
          [
            19.0064399,
            50.2875844
          ],
          [
            19.0041683,
            50.2861625
          ],
          [
            19.0064399,
            50.2875844
          ],
          [
            19.0064389,
            50.2875363
          ],
          [
            19.0066283,
            50.2874765
          ],
          [
            19.0066545,
            50.2875019
          ],
          [
            19.0065817,
            50.2876056
          ],
          [
            19.0063743,
            50.2878733
          ],
          [
            19.0058781,
            50.2898352
          ],
          [
            19.0057422,
            50.290341
          ],
          [
            19.0057242,
            50.2903933
          ],
          [
            19.0056135,
            50.2908709
          ],
          [
            19.0055764,
            50.2910181
          ],
          [
            19.0051858,
            50.2910113
          ],
          [
            19.0028394,
            50.290972
          ],
          [
            19.0026395,
            50.290985
          ],
          [
            19.0020662,
            50.291217
          ],
          [
            19.0019357,
            50.2912376
          ],
          [
            18.9993293,
            50.2922328
          ],
          [
            18.9980677,
            50.2949187
          ],
          [
            18.9971665,
            50.2952066
          ],
          [
            18.9940792,
            50.2948742
          ],
          [
            18.9922258,
            50.2950918
          ],
          [
            18.9917553,
            50.2944436
          ],
          [
            18.9867551,
            50.2924125
          ],
          [
            18.9817094,
            50.2922531
          ],
          [
            18.9809401,
            50.2910417
          ],
          [
            18.9774705,
            50.2908676
          ],
          [
            18.9769709,
            50.2908406
          ],
          [
            18.9755415,
            50.2907598
          ],
          [
            18.9743093,
            50.2906903
          ],
          [
            18.9730909,
            50.2907449
          ],
          [
            18.9730314,
            50.2907116
          ],
          [
            18.9722999,
            50.2906577
          ],
          [
            18.9722161,
            50.2905816
          ],
          [
            18.9719798,
            50.290581
          ],
          [
            18.9704385,
            50.2904938
          ],
          [
            18.9687931,
            50.2904061
          ],
          [
            18.9685735,
            50.2904422
          ],
          [
            18.9685448,
            50.29052
          ],
          [
            18.9682154,
            50.2905389
          ],
          [
            18.9681558,
            50.2903623
          ],
          [
            18.9678242,
            50.2901082
          ],
          [
            18.9675627,
            50.2900842
          ],
          [
            18.9673548,
            50.2900626
          ],
          [
            18.9671535,
            50.290041
          ],
          [
            18.9669398,
            50.2900189
          ],
          [
            18.9667438,
            50.2899983
          ],
          [
            18.9665221,
            50.2899752
          ],
          [
            18.9663229,
            50.2899537
          ],
          [
            18.9661165,
            50.2899324
          ],
          [
            18.9659021,
            50.2899096
          ],
          [
            18.9656855,
            50.2898867
          ],
          [
            18.9651918,
            50.2907222
          ],
          [
            18.9650781,
            50.290728
          ],
          [
            18.964681,
            50.2907093
          ],
          [
            18.9646632,
            50.2908101
          ],
          [
            18.9636822,
            50.2907277
          ],
          [
            18.9632858,
            50.2906947
          ],
          [
            18.9630522,
            50.290677
          ],
          [
            18.9627304,
            50.2906421
          ],
          [
            18.960827,
            50.2916519
          ],
          [
            18.9607839,
            50.2916631
          ],
          [
            18.9599984,
            50.2918454
          ],
          [
            18.9587767,
            50.2921351
          ],
          [
            18.9587717,
            50.2915032
          ],
          [
            18.9587836,
            50.2913365
          ],
          [
            18.9588259,
            50.2907428
          ],
          [
            18.9588306,
            50.2903736
          ],
          [
            18.9588532,
            50.2900719
          ],
          [
            18.9588632,
            50.2898495
          ],
          [
            18.9588904,
            50.2896342
          ],
          [
            18.9588932,
            50.2894707
          ],
          [
            18.958969,
            50.2885036
          ],
          [
            18.9590012,
            50.2880512
          ],
          [
            18.9590545,
            50.2871867
          ],
          [
            18.9590563,
            50.2871174
          ],
          [
            18.9589886,
            50.2868262
          ],
          [
            18.9589377,
            50.2867962
          ],
          [
            18.9584274,
            50.2867622
          ],
          [
            18.958216,
            50.2867641
          ],
          [
            18.9580999,
            50.2867632
          ],
          [
            18.9578335,
            50.2867612
          ],
          [
            18.9576828,
            50.2867601
          ],
          [
            18.9572244,
            50.2867288
          ],
          [
            18.9569927,
            50.2866691
          ],
          [
            18.9557484,
            50.2861483
          ],
          [
            18.9549566,
            50.2859439
          ],
          [
            18.9549291,
            50.2859437
          ]
        ]
      },
      "properties": {
        "name": "Okrężna trasa rowerowa - proporcja 10:7.0",
        "length_m": 19050,
        "description": "Ścieżka rowerowa 19.0km zaczynająca się i kończąca w tym samym punkcie. Porównanie proporcji:\n10:7.0: 19.0km (różnica: 4.8%)\n10:6.5: 18.6km (różnica: 7.0%)\n10:6.0: 18.3km (różnica: 8.4%)\n",
        "start_point": "18.9549, 50.2859",
        "target_length": "20.0 km",
        "proportion": "10:7.0",
        "length_difference_percent": 4.8,
        "stroke": "#0000FF",
        "stroke-width": 4,
        "bike_type": "szosowy",
        "surfaces": [],
        "not_allowed": [],
        "rideability": "OK"
      }
    },
    {
      "type": "Feature",
      "geometry": {
        "type": "Point",
        "coordinates": [
          18.9549,
          50.2859
        ]
      },
      "properties": {
        "name": "Punkt startowy/końcowy",
        "description": "Współrzędne: 18.954900, 50.285900",
        "marker-color": "#00FF00",
        "marker-symbol": "circle"
      }
    },
    {
      "type": "Feature",
      "geometry": {
        "type": "LineString",
        "coordinates": [
          [
            18.9549,
            50.2859
          ],
          [
            18.9549,
            50.31737625620715
          ],
          [
            19.00419452373527,
            50.3173658356637
          ],
          [
            19.00419452373527,
            50.285889579456544
          ],
          [
            18.9549,
            50.2859
          ]
        ]
      },
      "properties": {
        "name": "Kształt kwadratu",
        "description": "Teoretyczny kształt kwadratu 14.0km (4 x 3.5km)",
        "stroke": "#FF0000",
        "stroke-width": 2,
        "stroke-dasharray": "5,5"
      }
    },
    {
      "type": "Feature",
      "geometry": {
        "type": "Point",
        "coordinates": [
          18.9549,
          50.2859
        ]
      },
      "properties": {
        "name": "Wierzchołek 0",
        "description": "Wierzchołek kwadratu 0",
        "marker-color": "#FF0000",
        "marker-symbol": 0
      }
    },
    {
      "type": "Feature",
      "geometry": {
        "type": "Point",
        "coordinates": [
          18.9549,
          50.31737625620715
        ]
      },
      "properties": {
        "name": "Wierzchołek 1",
        "description": "Wierzchołek kwadratu 1",
        "marker-color": "#FF0000",
        "marker-symbol": 1
      }
    },
    {
      "type": "Feature",
      "geometry": {
        "type": "Point",
        "coordinates": [
          19.00419452373527,
          50.3173658356637
        ]
      },
      "properties": {
        "name": "Wierzchołek 2",
        "description": "Wierzchołek kwadratu 2",
        "marker-color": "#FF0000",
        "marker-symbol": 2
      }
    },
    {
      "type": "Feature",
      "geometry": {
        "type": "Point",
        "coordinates": [
          19.00419452373527,
          50.285889579456544
        ]
      },
      "properties": {
        "name": "Wierzchołek 3",
        "description": "Wierzchołek kwadratu 3",
        "marker-color": "#FF0000",
        "marker-symbol": 3
      }
    }
  ]
}