{
  "type": "FeatureCollection",
  "features": [
    {
      "type": "Feature",
      "geometry": {
        "type": "LineString",
        "coordinates": [
          [
            19.5707506,
            51.4666422
          ],
          [
            19.5706819,
            51.4666273
          ],
          [
            19.570598,
            51.4665871
          ],
          [
            19.5700366,
            51.4672041
          ],
          [
            19.569288,
            51.4679874
          ],
          [
            19.568541,
            51.4687813
          ],
          [
            19.563572,
            51.474046
          ],
          [
            19.5626918,
            51.4749716
          ],
          [
            19.5623556,
            51.4753237
          ],
          [
            19.5610862,
            51.4766765
          ],
          [
            19.5605761,
            51.4772195
          ],
          [
            19.5604265,
            51.4773724
          ],
          [
            19.5602305,
            51.4775808
          ],
          [
            19.5601709,
            51.4776317
          ],
          [
            19.5601283,
            51.4776688
          ],
          [
            19.5600989,
            51.4776907
          ],
          [
            19.5602321,
            51.4778606
          ],
          [
            19.5607409,
            51.4786383
          ],
          [
            19.5613052,
            51.4794928
          ],
          [
            19.5616425,
            51.4800831
          ],
          [
            19.5617318,
            51.4802713
          ],
          [
            19.5618597,
            51.4805411
          ],
          [
            19.5619626,
            51.4807581
          ],
          [
            19.5625341,
            51.4819063
          ],
          [
            19.5625856,
            51.4820098
          ],
          [
            19.5630591,
            51.4829788
          ],
          [
            19.5637509,
            51.4828891
          ],
          [
            19.5651763,
            51.4826471
          ],
          [
            19.5657077,
            51.4825374
          ],
          [
            19.5682902,
            51.4819917
          ],
          [
            19.5717475,
            51.4814962
          ],
          [
            19.5723755,
            51.481402
          ],
          [
            19.5733374,
            51.4812813
          ],
          [
            19.5734442,
            51.4812704
          ],
          [
            19.5737367,
            51.481249
          ],
          [
            19.5738771,
            51.4812429
          ],
          [
            19.5740204,
            51.4812386
          ],
          [
            19.5757308,
            51.4812279
          ],
          [
            19.5759187,
            51.4812261
          ],
          [
            19.5772289,
            51.4811739
          ],
          [
            19.5772948,
            51.4811716
          ],
          [
            19.5786501,
            51.4810854
          ],
          [
            19.5809737,
            51.4809351
          ],
          [
            19.5814509,
            51.4809005
          ],
          [
            19.5816702,
            51.4808792
          ],
          [
            19.5825687,
            51.4807754
          ],
          [
            19.5832841,
            51.4807135
          ],
          [
            19.5833803,
            51.4807028
          ],
          [
            19.583459,
            51.4806921
          ],
          [
            19.5835785,
            51.4806644
          ],
          [
            19.5853526,
            51.4802489
          ],
          [
            19.5884529,
            51.4794854
          ],
          [
            19.588739,
            51.4794144
          ],
          [
            19.5899652,
            51.4791068
          ],
          [
            19.5911812,
            51.478802
          ],
          [
            19.5922572,
            51.4785295
          ],
          [
            19.5930998,
            51.4783158
          ],
          [
            19.5935255,
            51.4782118
          ],
          [
            19.5937427,
            51.4781588
          ],
          [
            19.593844,
            51.478136
          ],
          [
            19.5939409,
            51.4781168
          ],
          [
            19.5940199,
            51.4781045
          ],
          [
            19.5940912,
            51.4780976
          ],
          [
            19.5941573,
            51.4780935
          ],
          [
            19.5942348,
            51.4780905
          ],
          [
            19.5943189,
            51.4780848
          ],
          [
            19.5945565,
            51.4788892
          ],
          [
            19.5947638,
            51.4796445
          ],
          [
            19.5948712,
            51.4800365
          ],
          [
            19.5949633,
            51.4804715
          ],
          [
            19.5951859,
            51.4814562
          ],
          [
            19.5951245,
            51.4816952
          ],
          [
            19.5949403,
            51.4821206
          ],
          [
            19.5949787,
            51.4824361
          ],
          [
            19.5951706,
            51.4829953
          ],
          [
            19.5957539,
            51.4850554
          ],
          [
            19.5960763,
            51.4863028
          ],
          [
            19.5962221,
            51.4864366
          ],
          [
            19.5965752,
            51.4864366
          ],
          [
            19.5975883,
            51.4863506
          ],
          [
            19.5986936,
            51.4860925
          ],
          [
            19.5997221,
            51.4858344
          ],
          [
            19.600835,
            51.4856289
          ],
          [
            19.6015181,
            51.4855333
          ],
          [
            19.6025236,
            51.4854234
          ],
          [
            19.604358,
            51.4852704
          ],
          [
            19.6050335,
            51.4851892
          ],
          [
            19.607505,
            51.4848164
          ],
          [
            19.6082844,
            51.484758
          ],
          [
            19.6083634,
            51.4847521
          ],
          [
            19.6085258,
            51.4847399
          ],
          [
            19.6094085,
            51.4846204
          ],
          [
            19.6097922,
            51.48452
          ],
          [
            19.6113462,
            51.4843443
          ],
          [
            19.6117447,
            51.4842247
          ],
          [
            19.6115887,
            51.4837711
          ],
          [
            19.6113731,
            51.4826697
          ],
          [
            19.6109832,
            51.4808603
          ],
          [
            19.6109632,
            51.4807735
          ],
          [
            19.6108158,
            51.4800501
          ],
          [
            19.6103995,
            51.4781202
          ],
          [
            19.610103,
            51.4781088
          ],
          [
            19.6083463,
            51.4780743
          ],
          [
            19.6072237,
            51.4780556
          ],
          [
            19.6061271,
            51.4780345
          ],
          [
            19.6050216,
            51.478019
          ],
          [
            19.6039833,
            51.478011
          ],
          [
            19.6036162,
            51.4766025
          ],
          [
            19.6030452,
            51.4744398
          ],
          [
            19.6026211,
            51.4728209
          ],
          [
            19.6024222,
            51.4719163
          ],
          [
            19.6018954,
            51.4693388
          ],
          [
            19.601554,
            51.4677069
          ],
          [
            19.6014359,
            51.4671083
          ],
          [
            19.5967565,
            51.4670183
          ],
          [
            19.5927675,
            51.4669521
          ],
          [
            19.5889048,
            51.4669189
          ],
          [
            19.5853814,
            51.4668507
          ],
          [
            19.5831273,
            51.4668071
          ],
          [
            19.5769642,
            51.4667408
          ],
          [
            19.5707506,
            51.4666422
          ]
        ]
      },
      "properties": {
        "name": "Okrężna trasa rowerowa - proporcja 10:6.5",
        "length_m": 10852,
        "description": "Ścieżka rowerowa 10.9km zaczynająca się i kończąca w tym samym punkcie. Porównanie proporcji:\n10:7: 12.2km (różnica: 21.6%)\n10:6.5: 10.9km (różnica: 8.5%)\n10:6: 10.9km (różnica: 8.5%)\n",
        "start_point": "19.571, 51.4668",
        "target_length": "10.0 km",
        "proportion": "10:6.5",
        "length_difference_percent": 8.5,
        "stroke": "#0000FF",
        "stroke-width": 4
      }
    },
    {
      "type": "Feature",
      "geometry": {
        "type": "Point",
        "coordinates": [
          19.571,
          51.4668
        ]
      },
      "properties": {
        "name": "Punkt startowy/końcowy",
        "description": "Współrzędne: 19.571000, 51.466800",
        "marker-color": "#00FF00",
        "marker-symbol": "circle"
      }
    },
    {
      "type": "Feature",
      "geometry": {
        "type": "LineString",
        "coordinates": [
          [
            19.571,
            51.4668
          ],
          [
            19.571,
            51.481413976096185
          ],
          [
            19.594466145529456,
            51.48141163461971
          ],
          [
            19.594466145529456,
            51.46679765852354
          ],
          [
            19.571,
            51.4668
          ]
        ]
      },
      "properties": {
        "name": "Kształt kwadratu",
        "description": "Teoretyczny kształt kwadratu 6.5km (4 x 1.6km)",
        "stroke": "#FF0000",
        "stroke-width": 2,
        "stroke-dasharray": "5,5"
      }
    },
    {
      "type": "Feature",
      "geometry": {
        "type": "Point",
        "coordinates": [
          19.571,
          51.4668
        ]
      },
      "properties": {
        "name": "Wierzchołek 0",
        "description": "Wierzchołek kwadratu 0",
        "marker-color": "#FF0000",
        "marker-symbol": 0
      }
    },
    {
      "type": "Feature",
      "geometry": {
        "type": "Point",
        "coordinates": [
          19.571,
          51.481413976096185
        ]
      },
      "properties": {
        "name": "Wierzchołek 1",
        "description": "Wierzchołek kwadratu 1",
        "marker-color": "#FF0000",
        "marker-symbol": 1
      }
    },
    {
      "type": "Feature",
      "geometry": {
        "type": "Point",
        "coordinates": [
          19.594466145529456,
          51.48141163461971
        ]
      },
      "properties": {
        "name": "Wierzchołek 2",
        "description": "Wierzchołek kwadratu 2",
        "marker-color": "#FF0000",
        "marker-symbol": 2
      }
    },
    {
      "type": "Feature",
      "geometry": {
        "type": "Point",
        "coordinates": [
          19.594466145529456,
          51.46679765852354
        ]
      },
      "properties": {
        "name": "Wierzchołek 3",
        "description": "Wierzchołek kwadratu 3",
        "marker-color": "#FF0000",
        "marker-symbol": 3
      }
    }
  ]
}